{
"type": "FeatureCollection",
"name": "atm",
"crs": { "type": "name", "properties": { "name": "urn:ogc:def:crs:OGC:1.3:CRS84" } },
"features": [
{ "type": "Feature", "properties": { "gid": 5360808425, "addr:housenumber": null, "amenity": "atm", "name": "Ecobank ATM Karen", "operator": "Ecobank ATM Karen" }, "geometry": { "type": "Point", "coordinates": [ 36.710448994889852, -1.325164299815569 ] } },
{ "type": "Feature", "properties": { "gid": 5360808424, "addr:housenumber": null, "amenity": "atm", "name": "KCB ATM - Karen", "operator": "KCB ATM - Karen" }, "geometry": { "type": "Point", "coordinates": [ 36.70775459489024, -1.323659799815786 ] } },
{ "type": "Feature", "properties": { "gid": 5360683987, "addr:housenumber": null, "amenity": "atm", "name": "Equity ATM", "operator": "Equity ATM" }, "geometry": { "type": "Point", "coordinates": [ 36.708397594890151, -1.322358099815965 ] } },
{ "type": "Feature", "properties": { "gid": 5338847265, "addr:housenumber": null, "amenity": "atm", "name": null, "operator": "Kenswitch ATM" }, "geometry": { "type": "Point", "coordinates": [ 36.73799259488603, -1.285444499821097 ] } },
{ "type": "Feature", "properties": { "gid": 1728934697, "addr:housenumber": null, "amenity": "atm", "name": null, "operator": "Postbank, Kenya ( Kenswitch )" }, "geometry": { "type": "Point", "coordinates": [ 36.718549094888729, -1.26266659982427 ] } },
{ "type": "Feature", "properties": { "gid": 3393468066, "addr:housenumber": null, "amenity": "atm", "name": null, "operator": null }, "geometry": { "type": "Point", "coordinates": [ 36.76417879488239, -1.343232499813061 ] } },
{ "type": "Feature", "properties": { "gid": 5371741526, "addr:housenumber": "Nakumatt Galleria, ATM Lobby, Langata Road, Nairobi", "amenity": "atm", "name": "Galleria Co-op Bank ATM", "operator": "Galleria Co-op Bank ATM" }, "geometry": { "type": "Point", "coordinates": [ 36.764431594882353, -1.343667799812994 ] } },
{ "type": "Feature", "properties": { "gid": 1635576812, "addr:housenumber": null, "amenity": "atm", "name": null, "operator": "KCB" }, "geometry": { "type": "Point", "coordinates": [ 36.780697294880085, -1.334732199814236 ] } },
{ "type": "Feature", "properties": { "gid": 5372384729, "addr:housenumber": null, "amenity": "atm", "name": "Prime Bank ATM", "operator": null }, "geometry": { "type": "Point", "coordinates": [ 36.798419994877612, -1.330919599814771 ] } },
{ "type": "Feature", "properties": { "gid": 5372373756, "addr:housenumber": "Kitengela Rd, Nairobi", "amenity": "atm", "name": "Cooperative Bank ATM", "operator": "Cooperative Bank ATM" }, "geometry": { "type": "Point", "coordinates": [ 36.789073994878919, -1.326631599815373 ] } },
{ "type": "Feature", "properties": { "gid": 5372373755, "addr:housenumber": "Kitengela Rd, Nairobi", "amenity": "atm", "name": "EcoBank ATM", "operator": "EcoBank ATM" }, "geometry": { "type": "Point", "coordinates": [ 36.789189994878903, -1.326777699815343 ] } },
{ "type": "Feature", "properties": { "gid": 5372373757, "addr:housenumber": "Kitengela Rd, Nairobi", "amenity": "atm", "name": "Equity Bank ATM", "operator": "Kitengela Rd, Nairobi" }, "geometry": { "type": "Point", "coordinates": [ 36.789340394878877, -1.326756199815348 ] } },
{ "type": "Feature", "properties": { "gid": 489246753, "addr:housenumber": null, "amenity": "atm", "name": "Barclays", "operator": null }, "geometry": { "type": "Point", "coordinates": [ 36.802929594876993, -1.324457099815668 ] } },
{ "type": "Feature", "properties": { "gid": 5372421002, "addr:housenumber": "Uchumi, Nairobi", "amenity": "atm", "name": "KCB ATM", "operator": null }, "geometry": { "type": "Point", "coordinates": [ 36.802868094876992, -1.323880599815757 ] } },
{ "type": "Feature", "properties": { "gid": 5372421001, "addr:housenumber": "Uchumi, Nairobi", "amenity": "atm", "name": "National Bank ATM", "operator": "National Bank ATM" }, "geometry": { "type": "Point", "coordinates": [ 36.802985194876982, -1.323694799815781 ] } },
{ "type": "Feature", "properties": { "gid": 6208216875, "addr:housenumber": null, "amenity": "atm", "name": null, "operator": "Barclays" }, "geometry": { "type": "Point", "coordinates": [ 36.889254794864982, -1.329812599814926 ] } },
{ "type": "Feature", "properties": { "gid": 6208216874, "addr:housenumber": null, "amenity": "atm", "name": null, "operator": "Standard Chartered Bank ATM" }, "geometry": { "type": "Point", "coordinates": [ 36.889428894864956, -1.329695799814945 ] } },
{ "type": "Feature", "properties": { "gid": 3283341012, "addr:housenumber": null, "amenity": "atm", "name": "Chomazone", "operator": "Co-operative bank ATM" }, "geometry": { "type": "Point", "coordinates": [ 36.882764094865877, -1.328336099815133 ] } },
{ "type": "Feature", "properties": { "gid": 6208217300, "addr:housenumber": null, "amenity": "atm", "name": null, "operator": "AutoBank ATM" }, "geometry": { "type": "Point", "coordinates": [ 36.891379994864678, -1.328783299815068 ] } },
{ "type": "Feature", "properties": { "gid": 6208217299, "addr:housenumber": null, "amenity": "atm", "name": null, "operator": "Equity Bank ATM" }, "geometry": { "type": "Point", "coordinates": [ 36.891470394864669, -1.328864799815057 ] } },
{ "type": "Feature", "properties": { "gid": 6208217294, "addr:housenumber": null, "amenity": "atm", "name": null, "operator": "KCB ATM - Embakasi- Airport North Rd" }, "geometry": { "type": "Point", "coordinates": [ 36.891514494864659, -1.328666499815084 ] } },
{ "type": "Feature", "properties": { "gid": 6208217301, "addr:housenumber": null, "amenity": "atm", "name": null, "operator": "Ecobank ATM" }, "geometry": { "type": "Point", "coordinates": [ 36.891697494864637, -1.3285451998151 ] } },
{ "type": "Feature", "properties": { "gid": 3519605680, "addr:housenumber": null, "amenity": "atm", "name": "Equity Bank ATM", "operator": null }, "geometry": { "type": "Point", "coordinates": [ 36.759696594883003, -1.299180599819182 ] } },
{ "type": "Feature", "properties": { "gid": 1628483769, "addr:housenumber": null, "amenity": "atm", "name": null, "operator": "Pesa Point" }, "geometry": { "type": "Point", "coordinates": [ 36.762308694882648, -1.298136699819336 ] } },
{ "type": "Feature", "properties": { "gid": 1306116735, "addr:housenumber": null, "amenity": "atm", "name": null, "operator": null }, "geometry": { "type": "Point", "coordinates": [ 36.762755194882587, -1.2983970998193 ] } },
{ "type": "Feature", "properties": { "gid": 5412286177, "addr:housenumber": null, "amenity": "atm", "name": "Co-operative Bank ATM", "operator": "Co-operative Bank ATM" }, "geometry": { "type": "Point", "coordinates": [ 36.781851694879919, -1.300522499819003 ] } },
{ "type": "Feature", "properties": { "gid": 5334916122, "addr:housenumber": null, "amenity": "atm", "name": null, "operator": "Equity Bank Atm" }, "geometry": { "type": "Point", "coordinates": [ 36.770478294881507, -1.290279999820419 ] } },
{ "type": "Feature", "properties": { "gid": 5334928987, "addr:housenumber": null, "amenity": "atm", "name": null, "operator": "Co-op Bank ATM - Valley Arcade Branch" }, "geometry": { "type": "Point", "coordinates": [ 36.770720994881479, -1.29043589982041 ] } },
{ "type": "Feature", "properties": { "gid": 1628483799, "addr:housenumber": null, "amenity": "atm", "name": null, "operator": "Standard Chartered" }, "geometry": { "type": "Point", "coordinates": [ 36.770707994881477, -1.290381799820411 ] } },
{ "type": "Feature", "properties": { "gid": 5354470345, "addr:housenumber": null, "amenity": "atm", "name": null, "operator": "Family Bank" }, "geometry": { "type": "Point", "coordinates": [ 36.770703494881481, -1.290338899820417 ] } },
{ "type": "Feature", "properties": { "gid": 496772870, "addr:housenumber": null, "amenity": "atm", "name": "Barclays", "operator": null }, "geometry": { "type": "Point", "coordinates": [ 36.802427094877061, -1.30746029981803 ] } },
{ "type": "Feature", "properties": { "gid": 5414008467, "addr:housenumber": "Prestige Plaza,", "amenity": "atm", "name": "Family Bank ATM Prestige Plaza", "operator": "Family Bank ATM Prestige Plaza" }, "geometry": { "type": "Point", "coordinates": [ 36.786850294879223, -1.300877399818945 ] } },
{ "type": "Feature", "properties": { "gid": 1628483780, "addr:housenumber": null, "amenity": "atm", "name": null, "operator": "Equity Bank" }, "geometry": { "type": "Point", "coordinates": [ 36.786843394879234, -1.30070969981897 ] } },
{ "type": "Feature", "properties": { "gid": 1628483746, "addr:housenumber": "Prestige Plaza,", "amenity": "atm", "name": "Standard Chartered Bank ATM", "operator": "Standard Chartered Bank" }, "geometry": { "type": "Point", "coordinates": [ 36.786816494879233, -1.300638099818979 ] } },
{ "type": "Feature", "properties": { "gid": 1628483782, "addr:housenumber": null, "amenity": "atm", "name": null, "operator": "Pesa Point" }, "geometry": { "type": "Point", "coordinates": [ 36.78681929487923, -1.300535299819002 ] } },
{ "type": "Feature", "properties": { "gid": 5414008474, "addr:housenumber": null, "amenity": "atm", "name": "Barclays Bank ATM", "operator": "Barclays Bank ATM" }, "geometry": { "type": "Point", "coordinates": [ 36.787096494879187, -1.30073509981897 ] } },
{ "type": "Feature", "properties": { "gid": 5414008471, "addr:housenumber": null, "amenity": "atm", "name": "Equity ATM", "operator": "Equity ATM" }, "geometry": { "type": "Point", "coordinates": [ 36.787242594879174, -1.300719699818971 ] } },
{ "type": "Feature", "properties": { "gid": 5414200463, "addr:housenumber": "Oil Libya,", "amenity": "atm", "name": "CfC Stanbic Bank ATM-Oil Libya", "operator": "CFC STANBIC" }, "geometry": { "type": "Point", "coordinates": [ 36.790048694878784, -1.300206899819048 ] } },
{ "type": "Feature", "properties": { "gid": 1635576807, "addr:housenumber": null, "amenity": "atm", "name": null, "operator": "Barclays" }, "geometry": { "type": "Point", "coordinates": [ 36.790616494878698, -1.299949699819072 ] } },
{ "type": "Feature", "properties": { "gid": 1628483705, "addr:housenumber": null, "amenity": "atm", "name": null, "operator": "KCB" }, "geometry": { "type": "Point", "coordinates": [ 36.790736294878691, -1.299983399819074 ] } },
{ "type": "Feature", "properties": { "gid": 1628483708, "addr:housenumber": null, "amenity": "atm", "name": null, "operator": "Eco Bank" }, "geometry": { "type": "Point", "coordinates": [ 36.790839294878673, -1.300026999819066 ] } },
{ "type": "Feature", "properties": { "gid": 3729387136, "addr:housenumber": null, "amenity": "atm", "name": "Housing Finance", "operator": null }, "geometry": { "type": "Point", "coordinates": [ 36.802326194877082, -1.307033899818095 ] } },
{ "type": "Feature", "properties": { "gid": 5383793344, "addr:housenumber": null, "amenity": "atm", "name": "KCB ATM", "operator": "KCB ATM" }, "geometry": { "type": "Point", "coordinates": [ 36.803611894876894, -1.298932299819224 ] } },
{ "type": "Feature", "properties": { "gid": 4413106389, "addr:housenumber": null, "amenity": "atm", "name": null, "operator": "CFC Stanbic" }, "geometry": { "type": "Point", "coordinates": [ 36.816790894875062, -1.312735899817306 ] } },
{ "type": "Feature", "properties": { "gid": 5372450530, "addr:housenumber": null, "amenity": "atm", "name": "Diamond Trust Bank ATM", "operator": null }, "geometry": { "type": "Point", "coordinates": [ 36.816803794875064, -1.312348899817353 ] } },
{ "type": "Feature", "properties": { "gid": 5372450539, "addr:housenumber": "Nairobi West Shopping Centre, Kodi Road, Nairobi", "amenity": "atm", "name": "Co-op Bank ATM - Nairobi West Branch", "operator": null }, "geometry": { "type": "Point", "coordinates": [ 36.821275194874438, -1.308283199817915 ] } },
{ "type": "Feature", "properties": { "gid": 1762069182, "addr:housenumber": null, "amenity": "atm", "name": null, "operator": "Kenya Commercial Bank" }, "geometry": { "type": "Point", "coordinates": [ 36.822462394874272, -1.30783509981798 ] } },
{ "type": "Feature", "properties": { "gid": 1762068641, "addr:housenumber": null, "amenity": "atm", "name": null, "operator": "Standard Chartered" }, "geometry": { "type": "Point", "coordinates": [ 36.823245394874156, -1.307555499818018 ] } },
{ "type": "Feature", "properties": { "gid": 1762068868, "addr:housenumber": null, "amenity": "atm", "name": null, "operator": "Cooperative Bank" }, "geometry": { "type": "Point", "coordinates": [ 36.823406394874148, -1.307542099818031 ] } },
{ "type": "Feature", "properties": { "gid": 5383793354, "addr:housenumber": null, "amenity": "atm", "name": "KCB - Kenyatta National Hospital", "operator": null }, "geometry": { "type": "Point", "coordinates": [ 36.806916494876432, -1.301144799818913 ] } },
{ "type": "Feature", "properties": { "gid": 5383793351, "addr:housenumber": null, "amenity": "atm", "name": "Equity Bank", "operator": "Equity Bank" }, "geometry": { "type": "Point", "coordinates": [ 36.807483794876354, -1.301681799818834 ] } },
{ "type": "Feature", "properties": { "gid": 5383793353, "addr:housenumber": null, "amenity": "atm", "name": "National Bank-Hospital", "operator": null }, "geometry": { "type": "Point", "coordinates": [ 36.80732909487638, -1.301325299818887 ] } },
{ "type": "Feature", "properties": { "gid": 5383793352, "addr:housenumber": null, "amenity": "atm", "name": "Co-operative Bank ATM", "operator": null }, "geometry": { "type": "Point", "coordinates": [ 36.807397794876366, -1.301144799818913 ] } },
{ "type": "Feature", "properties": { "gid": 5378414039, "addr:housenumber": "Aerodrome Rd, Nairobi", "amenity": "atm", "name": "Pesa Point", "operator": "Pesa Point" }, "geometry": { "type": "Point", "coordinates": [ 36.820070794874603, -1.306133299818224 ] } },
{ "type": "Feature", "properties": { "gid": 5414280555, "addr:housenumber": null, "amenity": "atm", "name": "KCB ATM", "operator": "KCB ATM" }, "geometry": { "type": "Point", "coordinates": [ 36.787766294879106, -1.293186099820018 ] } },
{ "type": "Feature", "properties": { "gid": 5414280547, "addr:housenumber": "1st Floor Yaya Centre,", "amenity": "atm", "name": "Co-op Bank ATM - Yaya Centre", "operator": "Co-op Bank ATM - Yaya Centre" }, "geometry": { "type": "Point", "coordinates": [ 36.787856094879089, -1.29271689982009 ] } },
{ "type": "Feature", "properties": { "gid": 5414280558, "addr:housenumber": "Yaya Centre,", "amenity": "atm", "name": "CBA ATM", "operator": "CBA ATM" }, "geometry": { "type": "Point", "coordinates": [ 36.788207594879047, -1.292741899820085 ] } },
{ "type": "Feature", "properties": { "gid": 5414200491, "addr:housenumber": null, "amenity": "atm", "name": "I&M ATM", "operator": null }, "geometry": { "type": "Point", "coordinates": [ 36.799857494877415, -1.29570429981967 ] } },
{ "type": "Feature", "properties": { "gid": 515625517, "addr:housenumber": null, "amenity": "atm", "name": "Barclays Bank (Hurlingham Branch)", "operator": "Barclays" }, "geometry": { "type": "Point", "coordinates": [ 36.79886699487755, -1.295066799819755 ] } },
{ "type": "Feature", "properties": { "gid": 1635588143, "addr:housenumber": null, "amenity": "atm", "name": null, "operator": "Standard Chartered" }, "geometry": { "type": "Point", "coordinates": [ 36.799112194877523, -1.295099499819747 ] } },
{ "type": "Feature", "properties": { "gid": 5414200490, "addr:housenumber": null, "amenity": "atm", "name": "Stanbic ATM", "operator": "Stanbic ATM" }, "geometry": { "type": "Point", "coordinates": [ 36.799877794877418, -1.295604599819691 ] } },
{ "type": "Feature", "properties": { "gid": 5414200495, "addr:housenumber": "Kenol,", "amenity": "atm", "name": "PesaPoint ATM Hurlingham", "operator": "PesaPoint" }, "geometry": { "type": "Point", "coordinates": [ 36.799783294877429, -1.294950299819768 ] } },
{ "type": "Feature", "properties": { "gid": 5414335739, "addr:housenumber": null, "amenity": "atm", "name": "Standard Chartered Bank ATM", "operator": "Standard Chartered Bank" }, "geometry": { "type": "Point", "coordinates": [ 36.80016579487738, -1.294931599819779 ] } },
{ "type": "Feature", "properties": { "gid": 5414200489, "addr:housenumber": null, "amenity": "atm", "name": "Coop ATM", "operator": "Coop ATM" }, "geometry": { "type": "Point", "coordinates": [ 36.801737794877148, -1.295434599819701 ] } },
{ "type": "Feature", "properties": { "gid": 5383793257, "addr:housenumber": null, "amenity": "atm", "name": "Stanbic Bank ATM", "operator": "Stanbic Bank ATM" }, "geometry": { "type": "Point", "coordinates": [ 36.806504394876491, -1.29457419981983 ] } },
{ "type": "Feature", "properties": { "gid": 4424510089, "addr:housenumber": null, "amenity": "atm", "name": null, "operator": null }, "geometry": { "type": "Point", "coordinates": [ 36.81400319487544, -1.295076099819759 ] } },
{ "type": "Feature", "properties": { "gid": 5380567788, "addr:housenumber": null, "amenity": "atm", "name": null, "operator": "Barclays Bank ATM" }, "geometry": { "type": "Point", "coordinates": [ 36.815615494875225, -1.295959399819634 ] } },
{ "type": "Feature", "properties": { "gid": 5555704199, "addr:housenumber": null, "amenity": "atm", "name": null, "operator": "KCB ATM" }, "geometry": { "type": "Point", "coordinates": [ 36.818084894874879, -1.287238499820855 ] } },
{ "type": "Feature", "properties": { "gid": 1721401325, "addr:housenumber": null, "amenity": "atm", "name": null, "operator": "Barclays" }, "geometry": { "type": "Point", "coordinates": [ 36.817594494874939, -1.284722899821197 ] } },
{ "type": "Feature", "properties": { "gid": 5555073944, "addr:housenumber": null, "amenity": "atm", "name": null, "operator": "Nic Bank" }, "geometry": { "type": "Point", "coordinates": [ 36.819460594874691, -1.284468899821234 ] } },
{ "type": "Feature", "properties": { "gid": 1721389483, "addr:housenumber": null, "amenity": "atm", "name": null, "operator": "PesaPoint" }, "geometry": { "type": "Point", "coordinates": [ 36.818431294874834, -1.2818374998216 ] } },
{ "type": "Feature", "properties": { "gid": 1721389484, "addr:housenumber": null, "amenity": "atm", "name": null, "operator": "Cooperative Bank" }, "geometry": { "type": "Point", "coordinates": [ 36.818474194874824, -1.281858999821588 ] } },
{ "type": "Feature", "properties": { "gid": 6959434085, "addr:housenumber": null, "amenity": "atm", "name": null, "operator": null }, "geometry": { "type": "Point", "coordinates": [ 36.823102294874182, -1.284268299821261 ] } },
{ "type": "Feature", "properties": { "gid": 5552467926, "addr:housenumber": "Old Mutual Building,", "amenity": "atm", "name": "Standard Chartered Bank", "operator": "Standard Chartered Bank" }, "geometry": { "type": "Point", "coordinates": [ 36.82376079487409, -1.284341299821254 ] } },
{ "type": "Feature", "properties": { "gid": 1720973303, "addr:housenumber": null, "amenity": "atm", "name": null, "operator": "GT Bank" }, "geometry": { "type": "Point", "coordinates": [ 36.821600094874391, -1.282645899821492 ] } },
{ "type": "Feature", "properties": { "gid": 1728805787, "addr:housenumber": null, "amenity": "atm", "name": null, "operator": "Cooprative Bank" }, "geometry": { "type": "Point", "coordinates": [ 36.749576994884414, -1.265318699823904 ] } },
{ "type": "Feature", "properties": { "gid": 1728805795, "addr:housenumber": null, "amenity": "atm", "name": null, "operator": "Kenya Commercial Bank" }, "geometry": { "type": "Point", "coordinates": [ 36.749524694884421, -1.265241699823904 ] } },
{ "type": "Feature", "properties": { "gid": 5334825603, "addr:housenumber": null, "amenity": "atm", "name": null, "operator": "Equity Bank ATM" }, "geometry": { "type": "Point", "coordinates": [ 36.777160094880578, -1.259588799824699 ] } },
{ "type": "Feature", "properties": { "gid": 5440688281, "addr:housenumber": null, "amenity": "atm", "name": "Standard Chartered Bank ATM", "operator": "Standard Chartered Bank" }, "geometry": { "type": "Point", "coordinates": [ 36.779689094880219, -1.259373199824719 ] } },
{ "type": "Feature", "properties": { "gid": 7007463785, "addr:housenumber": null, "amenity": "atm", "name": null, "operator": "Prime Bank" }, "geometry": { "type": "Point", "coordinates": [ 36.802193794877091, -1.271907099822987 ] } },
{ "type": "Feature", "properties": { "gid": 7007457685, "addr:housenumber": null, "amenity": "atm", "name": null, "operator": "SPM Bank (VISA ONLY)" }, "geometry": { "type": "Point", "coordinates": [ 36.801045994877256, -1.271003099823113 ] } },
{ "type": "Feature", "properties": { "gid": 5444958290, "addr:housenumber": "Oilibya Westlands,", "amenity": "atm", "name": "Barclays ATM", "operator": "Barclays" }, "geometry": { "type": "Point", "coordinates": [ 36.803396294876926, -1.263882299824096 ] } },
{ "type": "Feature", "properties": { "gid": 4424451594, "addr:housenumber": null, "amenity": "atm", "name": null, "operator": null }, "geometry": { "type": "Point", "coordinates": [ 36.785604294879406, -1.260092299824627 ] } },
{ "type": "Feature", "properties": { "gid": 5540763534, "addr:housenumber": "Total Petrol Station,", "amenity": "atm", "name": "Standard Chartered", "operator": "Standard Chartered" }, "geometry": { "type": "Point", "coordinates": [ 36.792024294878516, -1.253905999825485 ] } },
{ "type": "Feature", "properties": { "gid": 3677577238, "addr:housenumber": "Shell Petrol Station,", "amenity": "atm", "name": "CFC Stanbic", "operator": "CFC Stanbic" }, "geometry": { "type": "Point", "coordinates": [ 36.802742694877026, -1.262836299824241 ] } },
{ "type": "Feature", "properties": { "gid": 5340437898, "addr:housenumber": null, "amenity": "atm", "name": null, "operator": "Barclays Bank ATM" }, "geometry": { "type": "Point", "coordinates": [ 36.801542394877181, -1.26158159982442 ] } },
{ "type": "Feature", "properties": { "gid": 5360202693, "addr:housenumber": "Karuna Road, At Ground Floor, Sarit Centre, Westlands, Nairobi", "amenity": "atm", "name": "Standard Chartered Bank ATM 2", "operator": "Standard Chartered" }, "geometry": { "type": "Point", "coordinates": [ 36.801556294877187, -1.26142409982444 ] } },
{ "type": "Feature", "properties": { "gid": 5340437899, "addr:housenumber": null, "amenity": "atm", "name": null, "operator": "Equity Bank ATM" }, "geometry": { "type": "Point", "coordinates": [ 36.801823094877143, -1.261090999824487 ] } },
{ "type": "Feature", "properties": { "gid": 1628483796, "addr:housenumber": "Westgate Mall,", "amenity": "atm", "name": null, "operator": "Standard Chartered" }, "geometry": { "type": "Point", "coordinates": [ 36.803139994876958, -1.25708499982504 ] } },
{ "type": "Feature", "properties": { "gid": 5339427769, "addr:housenumber": null, "amenity": "atm", "name": null, "operator": "KCB ATM" }, "geometry": { "type": "Point", "coordinates": [ 36.813660394875498, -1.272836399822848 ] } },
{ "type": "Feature", "properties": { "gid": 4636841800, "addr:housenumber": null, "amenity": "atm", "name": "Ecobank", "operator": null }, "geometry": { "type": "Point", "coordinates": [ 36.811636394875777, -1.267084499823646 ] } },
{ "type": "Feature", "properties": { "gid": 5341059987, "addr:housenumber": null, "amenity": "atm", "name": null, "operator": "Equity ATM" }, "geometry": { "type": "Point", "coordinates": [ 36.824171394874028, -1.264079599824067 ] } },
{ "type": "Feature", "properties": { "gid": 5341059988, "addr:housenumber": null, "amenity": "atm", "name": null, "operator": "KCB ATM - Oil Libya Limuru Road" }, "geometry": { "type": "Point", "coordinates": [ 36.824523494873979, -1.263803199824114 ] } },
{ "type": "Feature", "properties": { "gid": 2780920626, "addr:housenumber": null, "amenity": "atm", "name": null, "operator": "Barclays Atm" }, "geometry": { "type": "Point", "coordinates": [ 36.824363894874004, -1.263721499824124 ] } },
{ "type": "Feature", "properties": { "gid": 277575156, "addr:housenumber": null, "amenity": "atm", "name": null, "operator": null }, "geometry": { "type": "Point", "coordinates": [ 36.824746894873954, -1.262423699824296 ] } },
{ "type": "Feature", "properties": { "gid": 5352705129, "addr:housenumber": null, "amenity": "atm", "name": null, "operator": "Equity Bank Atm" }, "geometry": { "type": "Point", "coordinates": [ 36.803899694876854, -1.231059699828664 ] } },
{ "type": "Feature", "properties": { "gid": 2461248373, "addr:housenumber": null, "amenity": "atm", "name": null, "operator": "Standard Chartered Bank" }, "geometry": { "type": "Point", "coordinates": [ 36.811381994875816, -1.235567899828035 ] } },
{ "type": "Feature", "properties": { "gid": 2461248502, "addr:housenumber": null, "amenity": "atm", "name": null, "operator": "CFC Stanbic Bank" }, "geometry": { "type": "Point", "coordinates": [ 36.811215594875833, -1.235393599828066 ] } },
{ "type": "Feature", "properties": { "gid": 300800898, "addr:housenumber": null, "amenity": "atm", "name": "UNFCU", "operator": "United Nations Federal Credit Union" }, "geometry": { "type": "Point", "coordinates": [ 36.814483294875387, -1.232723599828439 ] } },
{ "type": "Feature", "properties": { "gid": 300800468, "addr:housenumber": null, "amenity": "atm", "name": null, "operator": null }, "geometry": { "type": "Point", "coordinates": [ 36.815135594875287, -1.232697799828437 ] } },
{ "type": "Feature", "properties": { "gid": 1453525326, "addr:housenumber": null, "amenity": "atm", "name": null, "operator": "Diamond Trust Bank" }, "geometry": { "type": "Point", "coordinates": [ 36.835046794872518, -1.316712699816756 ] } },
{ "type": "Feature", "properties": { "gid": 1580136980, "addr:housenumber": null, "amenity": "atm", "name": null, "operator": "NIC Bank ATM" }, "geometry": { "type": "Point", "coordinates": [ 36.834447194872602, -1.31651359981677 ] } },
{ "type": "Feature", "properties": { "gid": 1453524905, "addr:housenumber": null, "amenity": "atm", "name": null, "operator": null }, "geometry": { "type": "Point", "coordinates": [ 36.834639094872571, -1.316444599816792 ] } },
{ "type": "Feature", "properties": { "gid": 6322808289, "addr:housenumber": null, "amenity": "atm", "name": null, "operator": "Standard Chartered" }, "geometry": { "type": "Point", "coordinates": [ 36.829837894873251, -1.312608499817324 ] } },
{ "type": "Feature", "properties": { "gid": 1960072389, "addr:housenumber": null, "amenity": "atm", "name": null, "operator": "Standard Charterd ATM" }, "geometry": { "type": "Point", "coordinates": [ 36.833521294872739, -1.30792189981797 ] } },
{ "type": "Feature", "properties": { "gid": 2145322818, "addr:housenumber": null, "amenity": "atm", "name": null, "operator": "Co-operative Bank of Kenya" }, "geometry": { "type": "Point", "coordinates": [ 36.837727694872157, -1.311500899817479 ] } },
{ "type": "Feature", "properties": { "gid": 6197926464, "addr:housenumber": null, "amenity": "atm", "name": null, "operator": "Co-op Bank ATM - Enterprise Road Branch" }, "geometry": { "type": "Point", "coordinates": [ 36.839163594871941, -1.299751499819114 ] } },
{ "type": "Feature", "properties": { "gid": 3294738188, "addr:housenumber": null, "amenity": "atm", "name": null, "operator": null }, "geometry": { "type": "Point", "coordinates": [ 36.828836494873386, -1.288881199820616 ] } },
{ "type": "Feature", "properties": { "gid": 3294738189, "addr:housenumber": null, "amenity": "atm", "name": null, "operator": null }, "geometry": { "type": "Point", "coordinates": [ 36.829055694873354, -1.288659999820655 ] } },
{ "type": "Feature", "properties": { "gid": 5496066064, "addr:housenumber": null, "amenity": "atm", "name": "Equity Bank ATM", "operator": "Equity Bank ATM" }, "geometry": { "type": "Point", "coordinates": [ 36.841711194871586, -1.291705999820226 ] } },
{ "type": "Feature", "properties": { "gid": 5496066067, "addr:housenumber": null, "amenity": "atm", "name": "National Bank ATM", "operator": "National Bank ATM" }, "geometry": { "type": "Point", "coordinates": [ 36.843334094871366, -1.292078499820173 ] } },
{ "type": "Feature", "properties": { "gid": 5496602970, "addr:housenumber": null, "amenity": "atm", "name": "National Bank ATM", "operator": "National Bank ATM" }, "geometry": { "type": "Point", "coordinates": [ 36.827899694873523, -1.27722179982224 ] } },
{ "type": "Feature", "properties": { "gid": 5496079226, "addr:housenumber": null, "amenity": "atm", "name": "Co-operative BankAtm", "operator": "Co-operative BankAtm" }, "geometry": { "type": "Point", "coordinates": [ 36.854571394869794, -1.294474599819847 ] } },
{ "type": "Feature", "properties": { "gid": 1460889352, "addr:housenumber": null, "amenity": "atm", "name": null, "operator": "Standard Chartered" }, "geometry": { "type": "Point", "coordinates": [ 36.88822749486512, -1.30188179981881 ] } },
{ "type": "Feature", "properties": { "gid": 1460891310, "addr:housenumber": null, "amenity": "atm", "name": null, "operator": "NIC Bank" }, "geometry": { "type": "Point", "coordinates": [ 36.888254794865112, -1.301194699818899 ] } },
{ "type": "Feature", "properties": { "gid": 1460889933, "addr:housenumber": null, "amenity": "atm", "name": null, "operator": "KCB" }, "geometry": { "type": "Point", "coordinates": [ 36.888246794865118, -1.301122299818918 ] } },
{ "type": "Feature", "properties": { "gid": 2739115556, "addr:housenumber": null, "amenity": "atm", "name": null, "operator": "KCB Embakasi" }, "geometry": { "type": "Point", "coordinates": [ 36.913471394861602, -1.311453899817477 ] } },
{ "type": "Feature", "properties": { "gid": 2730653485, "addr:housenumber": null, "amenity": "atm", "name": null, "operator": "Cooperative ATM" }, "geometry": { "type": "Point", "coordinates": [ 36.913417994861611, -1.31135259981749 ] } },
{ "type": "Feature", "properties": { "gid": 2739052643, "addr:housenumber": null, "amenity": "atm", "name": "Pesa Point Wanandege Plaza", "operator": "Pesa Point" }, "geometry": { "type": "Point", "coordinates": [ 36.912290794861761, -1.309838799817706 ] } },
{ "type": "Feature", "properties": { "gid": 1276749985, "addr:housenumber": null, "amenity": "atm", "name": null, "operator": null }, "geometry": { "type": "Point", "coordinates": [ 36.880846994866154, -1.288088099820735 ] } },
{ "type": "Feature", "properties": { "gid": 1276749978, "addr:housenumber": "Fairlane Building,", "amenity": "atm", "name": null, "operator": "Standard Chartered Bank ATM" }, "geometry": { "type": "Point", "coordinates": [ 36.881035194866122, -1.288088199820733 ] } },
{ "type": "Feature", "properties": { "gid": 5496079696, "addr:housenumber": "Vision Place,", "amenity": "atm", "name": null, "operator": "Barclays Bank" }, "geometry": { "type": "Point", "coordinates": [ 36.880759894866159, -1.287514799820807 ] } },
{ "type": "Feature", "properties": { "gid": 6259798972, "addr:housenumber": null, "amenity": "atm", "name": "Chicken Inn", "operator": "Standard Chattered ATM" }, "geometry": { "type": "Point", "coordinates": [ 36.901324094863291, -1.289013599820604 ] } },
{ "type": "Feature", "properties": { "gid": 6259798973, "addr:housenumber": null, "amenity": "atm", "name": null, "operator": "Ecobank ATM Greenspan Mall" }, "geometry": { "type": "Point", "coordinates": [ 36.901198294863306, -1.288918199820615 ] } },
{ "type": "Feature", "properties": { "gid": 5356215609, "addr:housenumber": "Murang'a Rd, Nairobi", "amenity": "atm", "name": null, "operator": "Chase Bank ATM" }, "geometry": { "type": "Point", "coordinates": [ 36.833995594872668, -1.268221199823489 ] } },
{ "type": "Feature", "properties": { "gid": 5340998427, "addr:housenumber": null, "amenity": "atm", "name": null, "operator": "PesaPoint ATM KCB - Limuru Road" }, "geometry": { "type": "Point", "coordinates": [ 36.827464094873577, -1.257970899824923 ] } },
{ "type": "Feature", "properties": { "gid": 1655512518, "addr:housenumber": null, "amenity": "atm", "name": null, "operator": "Imperial" }, "geometry": { "type": "Point", "coordinates": [ 36.827360094873583, -1.257502999824981 ] } },
{ "type": "Feature", "properties": { "gid": 6224913780, "addr:housenumber": null, "amenity": "atm", "name": null, "operator": "Equity Bank ATM" }, "geometry": { "type": "Point", "coordinates": [ 36.858088294869304, -1.253333399825566 ] } },
{ "type": "Feature", "properties": { "gid": 2536626731, "addr:housenumber": null, "amenity": "atm", "name": "KCB ATM - Village Market", "operator": null }, "geometry": { "type": "Point", "coordinates": [ 36.805100694876685, -1.229510299828882 ] } },
{ "type": "Feature", "properties": { "gid": 6224915432, "addr:housenumber": null, "amenity": "atm", "name": "National Bank ATM-Thika Highway", "operator": null }, "geometry": { "type": "Point", "coordinates": [ 36.888869994865026, -1.219961699830209 ] } },
{ "type": "Feature", "properties": { "gid": 6224915427, "addr:housenumber": null, "amenity": "atm", "name": null, "operator": "KCB Bank ATM" }, "geometry": { "type": "Point", "coordinates": [ 36.889157994864988, -1.219733499830242 ] } },
{ "type": "Feature", "properties": { "gid": 4217091091, "addr:housenumber": null, "amenity": "atm", "name": null, "operator": "KCB" }, "geometry": { "type": "Point", "coordinates": [ 36.878970794866405, -1.218440099830423 ] } },
{ "type": "Feature", "properties": { "gid": 6249063510, "addr:housenumber": null, "amenity": "atm", "name": null, "operator": "Coop Bank ATM" }, "geometry": { "type": "Point", "coordinates": [ 36.899519594863548, -1.21766209983053 ] } },
{ "type": "Feature", "properties": { "gid": 5904884585, "addr:housenumber": null, "amenity": "atm", "name": null, "operator": "Barclays" }, "geometry": { "type": "Point", "coordinates": [ 36.924063194860125, -1.330812999814787 ] } },
{ "type": "Feature", "properties": { "gid": 6173489657, "addr:housenumber": null, "amenity": "atm", "name": null, "operator": "Co - operative Bank ATM" }, "geometry": { "type": "Point", "coordinates": [ 36.922419494860357, -1.25791599982493 ] } },
{ "type": "Feature", "properties": { "gid": 6249168564, "addr:housenumber": null, "amenity": "atm", "name": null, "operator": "Cooperative ATM Hunters" }, "geometry": { "type": "Point", "coordinates": [ 36.918290594860935, -1.227483999829165 ] } },
{ "type": "Feature", "properties": { "gid": 1717391415, "addr:housenumber": null, "amenity": "atm", "name": null, "operator": "Equity Bank, Kenya LTD" }, "geometry": { "type": "Point", "coordinates": [ 36.934153594858728, -1.178683599835952 ] } },
{ "type": "Feature", "properties": { "gid": 6251534637, "addr:housenumber": null, "amenity": "atm", "name": "Equity Auto Teller Machine", "operator": "Equity Auto Teller Machine" }, "geometry": { "type": "Point", "coordinates": [ 36.934625394858656, -1.178764999835944 ] } },
{ "type": "Feature", "properties": { "gid": 1717391422, "addr:housenumber": null, "amenity": "atm", "name": null, "operator": "National Bank of Kenya" }, "geometry": { "type": "Point", "coordinates": [ 36.934967094858614, -1.178813399835927 ] } }
]
}
